{
  "type": "FeatureCollection",
  "features": [
    {
      "type": "Feature",
      "properties": {
        "norad_id": 33822,
        "name": "COSMOS 2251 DEB",
        "group": "cosmos-2251-debris",
        "lat": -32.71722815662146,
        "lon": 171.39597678469715,
        "alt_km": 870.5953624102931,
        "timestamp": "2025-12-19T08:58:49.729738+00:00",
        "meta_object_name": "COSMOS 2251 DEB",
        "meta_object_id": "1993-036BP",
        "meta_epoch": "2025-12-18T23:34:28.363008",
        "meta_mean_motion": 14.13099087,
        "meta_eccentricity": 0.01530225,
        "meta_inclination": 74.0677,
        "meta_ra_of_asc_node": 182.6616,
        "meta_arg_of_pericenter": 227.4613,
        "meta_mean_anomaly": 263.7605,
        "meta_ephemeris_type": 0,
        "meta_classification_type": "U",
        "meta_norad_cat_id": 33822,
        "meta_element_set_no": 999,
        "meta_rev_at_epoch": 86142,
        "meta_bstar": 0.00099656309,
        "meta_mean_motion_dot": 2.056e-05,
        "meta_mean_motion_ddot": 0,
        "tle_line1": "1 33822U 93036BP  25352.98227272  .00002056  00000+0  99656-3 0  9995",
        "tle_line2": "2 33822  74.0677 182.6616 0153022 227.4613 263.7605 14.13099087861421"
      },
      "geometry": {
        "type": "Point",
        "coordinates": [
          171.39597678469715,
          -32.71722815662146
        ]
      }
    },
    {
      "type": "Feature",
      "properties": {
        "norad_id": 33823,
        "name": "COSMOS 2251 DEB",
        "group": "cosmos-2251-debris",
        "lat": 12.3755529060622,
        "lon": -45.951846081579966,
        "alt_km": 907.754190847164,
        "timestamp": "2025-12-19T08:58:49.729748+00:00",
        "meta_object_name": "COSMOS 2251 DEB",
        "meta_object_id": "1993-036BQ",
        "meta_epoch": "2025-12-18T20:43:51.119904",
        "meta_mean_motion": 13.98965014,
        "meta_eccentricity": 0.02093926,
        "meta_inclination": 73.8094,
        "meta_ra_of_asc_node": 138.5973,
        "meta_arg_of_pericenter": 262.7737,
        "meta_mean_anomaly": 217.0807,
        "meta_ephemeris_type": 0,
        "meta_classification_type": "U",
        "meta_norad_cat_id": 33823,
        "meta_element_set_no": 999,
        "meta_rev_at_epoch": 85695,
        "meta_bstar": 0.00061467803,
        "meta_mean_motion_dot": 1.044e-05,
        "meta_mean_motion_ddot": 0,
        "tle_line1": "1 33823U 93036BQ  25352.86378611  .00001044  00000+0  61468-3 0  9993",
        "tle_line2": "2 33823  73.8094 138.5973 0209392 262.7737 217.0807 13.98965014856951"
      },
      "geometry": {
        "type": "Point",
        "coordinates": [
          -45.951846081579966,
          12.3755529060622
        ]
      }
    },
    {
      "type": "Feature",
      "properties": {
        "norad_id": 33825,
        "name": "COSMOS 2251 DEB",
        "group": "cosmos-2251-debris",
        "lat": 66.59260717294771,
        "lon": 56.45774713611969,
        "alt_km": 656.7905835462543,
        "timestamp": "2025-12-19T08:58:49.729759+00:00",
        "meta_object_name": "COSMOS 2251 DEB",
        "meta_object_id": "1993-036BS",
        "meta_epoch": "2025-12-18T11:44:14.157600",
        "meta_mean_motion": 14.69812495,
        "meta_eccentricity": 0.00848399,
        "meta_inclination": 73.9848,
        "meta_ra_of_asc_node": 16.6108,
        "meta_arg_of_pericenter": 342.2776,
        "meta_mean_anomaly": 87.8844,
        "meta_ephemeris_type": 0,
        "meta_classification_type": "U",
        "meta_norad_cat_id": 33825,
        "meta_element_set_no": 999,
        "meta_rev_at_epoch": 88964,
        "meta_bstar": 0.00063567363,
        "meta_mean_motion_dot": 3.979e-05,
        "meta_mean_motion_ddot": 0,
        "tle_line1": "1 33825U 93036BS  25352.48905275  .00003979  00000+0  63567-3 0  9996",
        "tle_line2": "2 33825  73.9848  16.6108 0084839 342.2776  87.8844 14.69812495889640"
      },
      "geometry": {
        "type": "Point",
        "coordinates": [
          56.45774713611969,
          66.59260717294771
        ]
      }
    },
    {
      "type": "Feature",
      "properties": {
        "norad_id": 33826,
        "name": "COSMOS 2251 DEB",
        "group": "cosmos-2251-debris",
        "lat": -65.30860617907157,
        "lon": -104.17620692357478,
        "alt_km": 784.8077322046192,
        "timestamp": "2025-12-19T08:58:49.729769+00:00",
        "meta_object_name": "COSMOS 2251 DEB",
        "meta_object_id": "1993-036BT",
        "meta_epoch": "2025-12-18T14:19:48.595008",
        "meta_mean_motion": 14.51749978,
        "meta_eccentricity": 0.00826875,
        "meta_inclination": 74.0648,
        "meta_ra_of_asc_node": 38.8641,
        "meta_arg_of_pericenter": 81.2775,
        "meta_mean_anomaly": 69.7494,
        "meta_ephemeris_type": 0,
        "meta_classification_type": "U",
        "meta_norad_cat_id": 33826,
        "meta_element_set_no": 999,
        "meta_rev_at_epoch": 87854,
        "meta_bstar": 0.00046794376,
        "meta_mean_motion_dot": 1.938e-05,
        "meta_mean_motion_ddot": 0,
        "tle_line1": "1 33826U 93036BT  25352.59709022  .00001938  00000+0  46794-3 0  9997",
        "tle_line2": "2 33826  74.0648  38.8641 0082687  81.2775  69.7494 14.51749978878540"
      },
      "geometry": {
        "type": "Point",
        "coordinates": [
          -104.17620692357478,
          -65.30860617907157
        ]
      }
    },
    {
      "type": "Feature",
      "properties": {
        "norad_id": 33828,
        "name": "COSMOS 2251 DEB",
        "group": "cosmos-2251-debris",
        "lat": -27.82524944947317,
        "lon": -142.93082736465328,
        "alt_km": 732.0502002709254,
        "timestamp": "2025-12-19T08:58:49.729780+00:00",
        "meta_object_name": "COSMOS 2251 DEB",
        "meta_object_id": "1993-036BV",
        "meta_epoch": "2025-12-18T18:27:21.669120",
        "meta_mean_motion": 14.44350204,
        "meta_eccentricity": 0.00294988,
        "meta_inclination": 74.0455,
        "meta_ra_of_asc_node": 226.8785,
        "meta_arg_of_pericenter": 298.8756,
        "meta_mean_anomaly": 126.5128,
        "meta_ephemeris_type": 0,
        "meta_classification_type": "U",
        "meta_norad_cat_id": 33828,
        "meta_element_set_no": 999,
        "meta_rev_at_epoch": 88400,
        "meta_bstar": 0.00031287097,
        "meta_mean_motion_dot": 1.056e-05,
        "meta_mean_motion_ddot": 0,
        "tle_line1": "1 33828U 93036BV  25352.76900080  .00001056  00000+0  31287-3 0  9997",
        "tle_line2": "2 33828  74.0455 226.8785 0029498 298.8756 126.5128 14.44350204884008"
      },
      "geometry": {
        "type": "Point",
        "coordinates": [
          -142.93082736465328,
          -27.82524944947317
        ]
      }
    },
    {
      "type": "Feature",
      "properties": {
        "norad_id": 33830,
        "name": "COSMOS 2251 DEB",
        "group": "cosmos-2251-debris",
        "lat": -72.6488522425718,
        "lon": 103.77037743487391,
        "alt_km": 636.9610682155753,
        "timestamp": "2025-12-19T08:58:49.729790+00:00",
        "meta_object_name": "COSMOS 2251 DEB",
        "meta_object_id": "1993-036BX",
        "meta_epoch": "2025-12-18T15:48:46.495008",
        "meta_mean_motion": 14.76962393,
        "meta_eccentricity": 0.00425343,
        "meta_inclination": 74.0317,
        "meta_ra_of_asc_node": 218.7605,
        "meta_arg_of_pericenter": 337.6056,
        "meta_mean_anomaly": 84.1934,
        "meta_ephemeris_type": 0,
        "meta_classification_type": "U",
        "meta_norad_cat_id": 33830,
        "meta_element_set_no": 999,
        "meta_rev_at_epoch": 89559,
        "meta_bstar": 0.00055710545,
        "meta_mean_motion_dot": 3.949e-05,
        "meta_mean_motion_ddot": 0,
        "tle_line1": "1 33830U 93036BX  25352.65887147  .00003949  00000+0  55711-3 0  9997",
        "tle_line2": "2 33830  74.0317 218.7605 0042534 337.6056  84.1934 14.76962393895593"
      },
      "geometry": {
        "type": "Point",
        "coordinates": [
          103.77037743487391,
          -72.6488522425718
        ]
      }
    },
    {
      "type": "Feature",
      "properties": {
        "norad_id": 33832,
        "name": "COSMOS 2251 DEB",
        "group": "cosmos-2251-debris",
        "lat": -67.40085126964289,
        "lon": 153.92723320245872,
        "alt_km": 688.8384967288102,
        "timestamp": "2025-12-19T08:58:49.729801+00:00",
        "meta_object_name": "COSMOS 2251 DEB",
        "meta_object_id": "1993-036BZ",
        "meta_epoch": "2025-12-18T22:22:00.885216",
        "meta_mean_motion": 14.60716791,
        "meta_eccentricity": 0.00244894,
        "meta_inclination": 74.053,
        "meta_ra_of_asc_node": 198.1592,
        "meta_arg_of_pericenter": 228.0559,
        "meta_mean_anomaly": 253.3974,
        "meta_ephemeris_type": 0,
        "meta_classification_type": "U",
        "meta_norad_cat_id": 33832,
        "meta_element_set_no": 999,
        "meta_rev_at_epoch": 88515,
        "meta_bstar": 0.00099706536,
        "meta_mean_motion_dot": 4.854e-05,
        "meta_mean_motion_ddot": 0,
        "tle_line1": "1 33832U 93036BZ  25352.93195469  .00004854  00000+0  99707-3 0  9998",
        "tle_line2": "2 33832  74.0530 198.1592 0024489 228.0559 253.3974 14.60716791885155"
      },
      "geometry": {
        "type": "Point",
        "coordinates": [
          153.92723320245872,
          -67.40085126964289
        ]
      }
    }
  ]
}